[
    {
        "OBJECT_NAME": "STARLINK-2121",
        "OBJECT_ID": "2021-005BC",
        "EPOCH": "2023-09-13T23:52:46.974432",
        "MEAN_MOTION": 15.06399577,
        "ECCENTRICITY": 0.0001409,
        "INCLINATION": 53.0544,
        "RA_OF_ASC_NODE": 156.6607,
        "ARG_OF_PERICENTER": 86.7148,
        "MEAN_ANOMALY": 273.4002,
        "EPHEMERIS_TYPE": 0,
        "CLASSIFICATION_TYPE": "U",
        "NORAD_CAT_ID": 47399,
        "ELEMENT_SET_NO": 999,
        "REV_AT_EPOCH": 14650,
        "BSTAR": 0.00067603,
        "MEAN_MOTION_DOT": 0.00009802,
        "MEAN_MOTION_DDOT": 0
    },
    {
        "OBJECT_NAME": "STARLINK-2122",
        "OBJECT_ID": "2021-005BD",
        "EPOCH": "2023-09-14T00:32:31.053696",
        "MEAN_MOTION": 15.0646156,
        "ECCENTRICITY": 0.0001283,
        "INCLINATION": 53.0539,
        "RA_OF_ASC_NODE": 136.3059,
        "ARG_OF_PERICENTER": 80.8619,
        "MEAN_ANOMALY": 279.2515,
        "EPHEMERIS_TYPE": 0,
        "CLASSIFICATION_TYPE": "U",
        "NORAD_CAT_ID": 47400,
        "ELEMENT_SET_NO": 999,
        "REV_AT_EPOCH": 14679,
        "BSTAR": 0.0017028,
        "MEAN_MOTION_DOT": 0.00025215,
        "MEAN_MOTION_DDOT": 0
    },
    {
        "OBJECT_NAME": "STARLINK-2123",
        "OBJECT_ID": "2021-005BE",
        "EPOCH": "2023-09-14T02:33:15.417216",
        "MEAN_MOTION": 15.06476501,
        "ECCENTRICITY": 0.0000986,
        "INCLINATION": 53.055,
        "RA_OF_ASC_NODE": 145.9191,
        "ARG_OF_PERICENTER": 89.839,
        "MEAN_ANOMALY": 270.2712,
        "EPHEMERIS_TYPE": 0,
        "CLASSIFICATION_TYPE": "U",
        "NORAD_CAT_ID": 47401,
        "ELEMENT_SET_NO": 999,
        "REV_AT_EPOCH": 14728,
        "BSTAR": 0.0019453,
        "MEAN_MOTION_DOT": 0.00028873,
        "MEAN_MOTION_DDOT": 0
    },
    {
        "OBJECT_NAME": "STARLINK-2124",
        "OBJECT_ID": "2021-005BF",
        "EPOCH": "2023-09-13T22:13:12.585504",
        "MEAN_MOTION": 15.06411423,
        "ECCENTRICITY": 0.0001906,
        "INCLINATION": 53.0546,
        "RA_OF_ASC_NODE": 146.7323,
        "ARG_OF_PERICENTER": 15.0134,
        "MEAN_ANOMALY": 345.0911,
        "EPHEMERIS_TYPE": 0,
        "CLASSIFICATION_TYPE": "U",
        "NORAD_CAT_ID": 47402,
        "ELEMENT_SET_NO": 999,
        "REV_AT_EPOCH": 14725,
        "BSTAR": 0.00090653,
        "MEAN_MOTION_DOT": 0.00013251,
        "MEAN_MOTION_DDOT": 0
    },
    {
        "OBJECT_NAME": "STARLINK-2127",
        "OBJECT_ID": "2021-005BG",
        "EPOCH": "2023-09-13T23:59:22.385760",
        "MEAN_MOTION": 15.06385579,
        "ECCENTRICITY": 0.0001372,
        "INCLINATION": 53.0537,
        "RA_OF_ASC_NODE": 146.4008,
        "ARG_OF_PERICENTER": 86.4479,
        "MEAN_ANOMALY": 273.6667,
        "EPHEMERIS_TYPE": 0,
        "CLASSIFICATION_TYPE": "U",
        "NORAD_CAT_ID": 47403,
        "ELEMENT_SET_NO": 999,
        "REV_AT_EPOCH": 14726,
        "BSTAR": -0.000053454,
        "MEAN_MOTION_DOT": -0.00001077,
        "MEAN_MOTION_DDOT": 0
    },
    {
        "OBJECT_NAME": "STARLINK-2128",
        "OBJECT_ID": "2021-005BH",
        "EPOCH": "2023-09-14T01:29:36.105216",
        "MEAN_MOTION": 15.06391808,
        "ECCENTRICITY": 0.0001377,
        "INCLINATION": 53.0539,
        "RA_OF_ASC_NODE": 146.1186,
        "ARG_OF_PERICENTER": 88.5562,
        "MEAN_ANOMALY": 271.5584,
        "EPHEMERIS_TYPE": 0,
        "CLASSIFICATION_TYPE": "U",
        "NORAD_CAT_ID": 47404,
        "ELEMENT_SET_NO": 999,
        "REV_AT_EPOCH": 14727,
        "BSTAR": 0.00017437,
        "MEAN_MOTION_DOT": 0.00002316,
        "MEAN_MOTION_DDOT": 0
    },
    {
        "OBJECT_NAME": "STARLINK-2130",
        "OBJECT_ID": "2021-005BJ",
        "EPOCH": "2023-09-14T04:15:28.306944",
        "MEAN_MOTION": 15.06385939,
        "ECCENTRICITY": 0.0001523,
        "INCLINATION": 53.0552,
        "RA_OF_ASC_NODE": 175.6002,
        "ARG_OF_PERICENTER": 81.968,
        "MEAN_ANOMALY": 278.1482,
        "EPHEMERIS_TYPE": 0,
        "CLASSIFICATION_TYPE": "U",
        "NORAD_CAT_ID": 47405,
        "ELEMENT_SET_NO": 999,
        "REV_AT_EPOCH": 14625,
        "BSTAR": -0.00004298,
        "MEAN_MOTION_DOT": -0.00000921,
        "MEAN_MOTION_DDOT": 0
    },
    {
        "OBJECT_NAME": "STARLINK-2133",
        "OBJECT_ID": "2021-005BK",
        "EPOCH": "2023-09-14T01:45:31.442112",
        "MEAN_MOTION": 15.06391899,
        "ECCENTRICITY": 0.0001417,
        "INCLINATION": 53.0538,
        "RA_OF_ASC_NODE": 146.0699,
        "ARG_OF_PERICENTER": 92.2426,
        "MEAN_ANOMALY": 267.8725,
        "EPHEMERIS_TYPE": 0,
        "CLASSIFICATION_TYPE": "U",
        "NORAD_CAT_ID": 47406,
        "ELEMENT_SET_NO": 999,
        "REV_AT_EPOCH": 14728,
        "BSTAR": 0.000079044,
        "MEAN_MOTION_DOT": 0.00000896,
        "MEAN_MOTION_DDOT": 0
    },
    {
        "OBJECT_NAME": "STARLINK-2134",
        "OBJECT_ID": "2021-005BL",
        "EPOCH": "2023-09-14T01:56:08.373408",
        "MEAN_MOTION": 15.06392385,
        "ECCENTRICITY": 0.0001324,
        "INCLINATION": 53.0539,
        "RA_OF_ASC_NODE": 146.0323,
        "ARG_OF_PERICENTER": 87.5095,
        "MEAN_ANOMALY": 272.6045,
        "EPHEMERIS_TYPE": 0,
        "CLASSIFICATION_TYPE": "U",
        "NORAD_CAT_ID": 47407,
        "ELEMENT_SET_NO": 999,
        "REV_AT_EPOCH": 14727,
        "BSTAR": 0.000093698,
        "MEAN_MOTION_DOT": 0.00001114,
        "MEAN_MOTION_DDOT": 0
    },
    {
        "OBJECT_NAME": "STARLINK-2135",
        "OBJECT_ID": "2021-005BM",
        "EPOCH": "2023-09-14T02:49:10.898400",
        "MEAN_MOTION": 15.06471235,
        "ECCENTRICITY": 0.0001085,
        "INCLINATION": 53.0538,
        "RA_OF_ASC_NODE": 145.8699,
        "ARG_OF_PERICENTER": 90.0885,
        "MEAN_ANOMALY": 270.0229,
        "EPHEMERIS_TYPE": 0,
        "CLASSIFICATION_TYPE": "U",
        "NORAD_CAT_ID": 47408,
        "ELEMENT_SET_NO": 999,
        "REV_AT_EPOCH": 14728,
        "BSTAR": 0.0017912,
        "MEAN_MOTION_DOT": 0.00026551,
        "MEAN_MOTION_DDOT": 0
    },
    {
        "OBJECT_NAME": "STARLINK-1782",
        "OBJECT_ID": "2021-009A",
        "EPOCH": "2023-09-13T22:10:32.831904",
        "MEAN_MOTION": 15.06389335,
        "ECCENTRICITY": 0.0001664,
        "INCLINATION": 53.0548,
        "RA_OF_ASC_NODE": 126.741,
        "ARG_OF_PERICENTER": 72.9132,
        "MEAN_ANOMALY": 287.2039,
        "EPHEMERIS_TYPE": 0,
        "CLASSIFICATION_TYPE": "U",
        "NORAD_CAT_ID": 47548,
        "ELEMENT_SET_NO": 999,
        "REV_AT_EPOCH": 14471,
        "BSTAR": -0.00020123,
        "MEAN_MOTION_DOT": -0.00003277,
        "MEAN_MOTION_DDOT": 0
    },
    {
        "OBJECT_NAME": "STARLINK-1806",
        "OBJECT_ID": "2021-009B",
        "EPOCH": "2023-09-14T01:16:17.803776",
        "MEAN_MOTION": 15.06467314,
        "ECCENTRICITY": 0.0001565,
        "INCLINATION": 53.0538,
        "RA_OF_ASC_NODE": 126.1582,
        "ARG_OF_PERICENTER": 100.1777,
        "MEAN_ANOMALY": 259.9388,
        "EPHEMERIS_TYPE": 0,
        "CLASSIFICATION_TYPE": "U",
        "NORAD_CAT_ID": 47549,
        "ELEMENT_SET_NO": 999,
        "REV_AT_EPOCH": 14474,
        "BSTAR": 0.0015759,
        "MEAN_MOTION_DOT": 0.00023312,
        "MEAN_MOTION_DDOT": 0
    }
]