STARLINK-2121           
1 47399U 21005BC  23256.99498813  .00009802  00000+0  67603-3 0  9992
2 47399  53.0544 156.6607 0001409  86.7148 273.4002 15.06399577146500
STARLINK-2122           
1 47400U 21005BD  23257.02258164  .00025215  00000+0  17028-2 0  9994
2 47400  53.0539 136.3059 0001283  80.8619 279.2515 15.06461560146797
STARLINK-2123           
1 47401U 21005BE  23257.10642844  .00028873  00000+0  19453-2 0  9993
2 47401  53.0550 145.9191 0000986  89.8390 270.2712 15.06476501147284
STARLINK-2124           
1 47402U 21005BF  23256.92584011  .00013251  00000+0  90653-3 0  9990
2 47402  53.0546 146.7323 0001906  15.0134 345.0911 15.06411423147257
STARLINK-2127           
1 47403U 21005BG  23256.99956465 -.00001077  00000+0 -53454-4 0  9998
2 47403  53.0537 146.4008 0001372  86.4479 273.6667 15.06385579147263
STARLINK-2128           
1 47404U 21005BH  23257.06222344  .00002316  00000+0  17437-3 0  9995
2 47404  53.0539 146.1186 0001377  88.5562 271.5584 15.06391808147279
STARLINK-2130           
1 47405U 21005BJ  23257.17741096 -.00000921  00000+0 -42980-4 0  9992
2 47405  53.0552 175.6002 0001523  81.9680 278.1482 15.06385939146255
STARLINK-2133           
1 47406U 21005BK  23257.07328058  .00000896  00000+0  79044-4 0  9991
2 47406  53.0538 146.0699 0001417  92.2426 267.8725 15.06391899147280
STARLINK-2134           
1 47407U 21005BL  23257.08065247  .00001114  00000+0  93698-4 0  9996
2 47407  53.0539 146.0323 0001324  87.5095 272.6045 15.06392385147271
STARLINK-2135           
1 47408U 21005BM  23257.11748725  .00026551  00000+0  17912-2 0  9995
2 47408  53.0538 145.8699 0001085  90.0885 270.0229 15.06471235147283
STARLINK-1782           
1 47548U 21009A   23256.92399111 -.00003277  00000+0 -20123-3 0  9994
2 47548  53.0548 126.7410 0001664  72.9132 287.2039 15.06389335144718
STARLINK-1806           
1 47549U 21009B   23257.05298384  .00023312  00000+0  15759-2 0  9998
2 47549  53.0538 126.1582 0001565 100.1777 259.9388 15.06467314144741
